IRIDIUM 126             
1 42809U 17039G   26200.10262677  .00000036  00000+0  57419-5 0  9993
2 42809  86.3997 340.3031 0002094  92.9887 267.1549 14.34217683474524
IRIDIUM 124             
1 42810U 17039H   26200.22188148  .00000125  00000+0  31305-4 0  9992
2 42810  86.4478 276.9651 0002244  96.9794 263.1662 14.43275066479730
IRIDIUM 128             
1 42811U 17039J   26200.02359933  .00000115  00000+0  33917-4 0  9993
2 42811  86.3970  11.8358 0002290  93.6254 266.5204 14.34217853474546
IRIDIUM 121             
1 42812U 17039K   26200.12165496  .00000014  00000+0 -19510-5 0  9997
2 42812  86.3998 340.3230 0002263  93.2703 266.8752 14.34217514474401
IRIDIUM 133             
1 42955U 17061A   26200.19484674  .00000108  00000+0  31416-4 0  9990
2 42955  86.3970  11.8828 0002221  91.6725 268.4725 14.34218081459368
IRIDIUM 100             
1 42956U 17061B   26199.97919975  .00000103  00000+0  29857-4 0  9992
2 42956  86.3969  11.8908 0002218  90.8092 269.3358 14.34218142459337
IRIDIUM 122             
1 42957U 17061C   26200.01725320  .00000048  00000+0  10217-4 0  9998
2 42957  86.3970  11.8751 0002124  91.2065 268.9374 14.34216533459343
IRIDIUM 129             
1 42958U 17061D   26199.97285700  .00000066  00000+0  16471-4 0  9992
2 42958  86.3970  11.9611 0002088  86.1236 274.0199 14.34215956459354
IRIDIUM 119             
1 42959U 17061E   26200.22021946  .00000102  00000+0  29510-4 0  9993
2 42959  86.3971  11.8535 0002117  91.8386 268.3052 14.34217650459405
IRIDIUM 107             
1 42960U 17061F   26200.23924474  .00000037  00000+0  59917-5 0  9996
2 42960  86.3973  11.8672 0002163  97.0624 263.0818 14.34217411459413
IRIDIUM 132             
1 42961U 17061G   26200.17582052  .00000109  00000+0  31694-4 0  9993
2 42961  86.3971  11.8729 0002188  91.3743 268.7703 14.34217615459401
IRIDIUM 136             
1 42962U 17061H   26200.20753297  .00000105  00000+0  30279-4 0  9993
2 42962  86.3971  11.8665 0002257  90.7167 269.4287 14.34218142459424
IRIDIUM 139             
1 42963U 17061J   26200.00457106  .00000106  00000+0  30732-4 0  9997
2 42963  86.3973  12.0137 0002263  92.4202 267.7253 14.34218066459407
IRIDIUM 125             
1 42964U 17061K   26199.99188450  .00000108  00000+0  31412-4 0  9994
2 42964  86.3974  12.0808 0001709  97.3980 262.7410 14.34218374459418
IRIDIUM 135             
1 43070U 17083A   26200.31485146 -.00000007  00000+0 -96099-5 0  9991
2 43070  86.3984 308.5864 0002110  94.8546 265.2891 14.34217643448754
IRIDIUM 138             
1 43071U 17083B   26200.27045209  .00000199  00000+0  64173-4 0  9996
2 43071  86.4001 308.3048 0002033  94.1505 265.9923 14.34217248448732
