{"fetched_at":"2026-07-19T17:31:06.558Z","source":"https://celestrak.org/NORAD/elements/gp.php?GROUP=iridium-NEXT&FORMAT=JSON","constellation":"iridium","records":[{"OBJECT_NAME":"IRIDIUM 126","OBJECT_ID":"2017-039G","EPOCH":"2026-07-19T02:27:46.952928","CLASSIFICATION_TYPE":"U","MEAN_MOTION":14.34217683,"ECCENTRICITY":0.00020947,"INCLINATION":86.3997,"RA_OF_ASC_NODE":340.3031,"ARG_OF_PERICENTER":92.9887,"MEAN_ANOMALY":267.1549,"EPHEMERIS_TYPE":0,"NORAD_CAT_ID":42809,"ELEMENT_SET_NO":999,"REV_AT_EPOCH":47452,"BSTAR":0.000005741875,"MEAN_MOTION_DOT":3.6e-7,"MEAN_MOTION_DDOT":0},{"OBJECT_NAME":"IRIDIUM 124","OBJECT_ID":"2017-039H","EPOCH":"2026-07-19T05:19:30.559872","CLASSIFICATION_TYPE":"U","MEAN_MOTION":14.43275066,"ECCENTRICITY":0.00022442,"INCLINATION":86.4478,"RA_OF_ASC_NODE":276.9651,"ARG_OF_PERICENTER":96.9794,"MEAN_ANOMALY":263.1662,"EPHEMERIS_TYPE":0,"NORAD_CAT_ID":42810,"ELEMENT_SET_NO":999,"REV_AT_EPOCH":47973,"BSTAR":0.000031304866,"MEAN_MOTION_DOT":0.00000125,"MEAN_MOTION_DDOT":0},{"OBJECT_NAME":"IRIDIUM 128","OBJECT_ID":"2017-039J","EPOCH":"2026-07-19T00:33:58.982112","CLASSIFICATION_TYPE":"U","MEAN_MOTION":14.34217853,"ECCENTRICITY":0.000229,"INCLINATION":86.397,"RA_OF_ASC_NODE":11.8358,"ARG_OF_PERICENTER":93.6254,"MEAN_ANOMALY":266.5204,"EPHEMERIS_TYPE":0,"NORAD_CAT_ID":42811,"ELEMENT_SET_NO":999,"REV_AT_EPOCH":47454,"BSTAR":0.00003391706,"MEAN_MOTION_DOT":0.00000115,"MEAN_MOTION_DDOT":0},{"OBJECT_NAME":"IRIDIUM 121","OBJECT_ID":"2017-039K","EPOCH":"2026-07-19T02:55:10.988544","CLASSIFICATION_TYPE":"U","MEAN_MOTION":14.34217514,"ECCENTRICITY":0.0002263,"INCLINATION":86.3998,"RA_OF_ASC_NODE":340.323,"ARG_OF_PERICENTER":93.2703,"MEAN_ANOMALY":266.8752,"EPHEMERIS_TYPE":0,"NORAD_CAT_ID":42812,"ELEMENT_SET_NO":999,"REV_AT_EPOCH":47440,"BSTAR":-0.000001950989,"MEAN_MOTION_DOT":1.4e-7,"MEAN_MOTION_DDOT":0},{"OBJECT_NAME":"IRIDIUM 133","OBJECT_ID":"2017-061A","EPOCH":"2026-07-19T04:40:34.758336","CLASSIFICATION_TYPE":"U","MEAN_MOTION":14.34218081,"ECCENTRICITY":0.00022212,"INCLINATION":86.397,"RA_OF_ASC_NODE":11.8828,"ARG_OF_PERICENTER":91.6725,"MEAN_ANOMALY":268.4725,"EPHEMERIS_TYPE":0,"NORAD_CAT_ID":42955,"ELEMENT_SET_NO":999,"REV_AT_EPOCH":45936,"BSTAR":0.000031416351,"MEAN_MOTION_DOT":0.00000108,"MEAN_MOTION_DDOT":0},{"OBJECT_NAME":"IRIDIUM 100","OBJECT_ID":"2017-061B","EPOCH":"2026-07-18T23:30:02.858400","CLASSIFICATION_TYPE":"U","MEAN_MOTION":14.34218142,"ECCENTRICITY":0.00022184,"INCLINATION":86.3969,"RA_OF_ASC_NODE":11.8908,"ARG_OF_PERICENTER":90.8092,"MEAN_ANOMALY":269.3358,"EPHEMERIS_TYPE":0,"NORAD_CAT_ID":42956,"ELEMENT_SET_NO":999,"REV_AT_EPOCH":45933,"BSTAR":0.00002985704,"MEAN_MOTION_DOT":0.00000103,"MEAN_MOTION_DDOT":0},{"OBJECT_NAME":"IRIDIUM 122","OBJECT_ID":"2017-061C","EPOCH":"2026-07-19T00:24:50.676480","CLASSIFICATION_TYPE":"U","MEAN_MOTION":14.34216533,"ECCENTRICITY":0.00021245,"INCLINATION":86.397,"RA_OF_ASC_NODE":11.8751,"ARG_OF_PERICENTER":91.2065,"MEAN_ANOMALY":268.9374,"EPHEMERIS_TYPE":0,"NORAD_CAT_ID":42957,"ELEMENT_SET_NO":999,"REV_AT_EPOCH":45934,"BSTAR":0.000010216684,"MEAN_MOTION_DOT":4.8e-7,"MEAN_MOTION_DDOT":0},{"OBJECT_NAME":"IRIDIUM 129","OBJECT_ID":"2017-061D","EPOCH":"2026-07-18T23:20:54.844800","CLASSIFICATION_TYPE":"U","MEAN_MOTION":14.34215956,"ECCENTRICITY":0.00020888,"INCLINATION":86.397,"RA_OF_ASC_NODE":11.9611,"ARG_OF_PERICENTER":86.1236,"MEAN_ANOMALY":274.0199,"EPHEMERIS_TYPE":0,"NORAD_CAT_ID":42958,"ELEMENT_SET_NO":999,"REV_AT_EPOCH":45935,"BSTAR":0.000016470532,"MEAN_MOTION_DOT":6.6e-7,"MEAN_MOTION_DDOT":0},{"OBJECT_NAME":"IRIDIUM 119","OBJECT_ID":"2017-061E","EPOCH":"2026-07-19T05:17:06.961344","CLASSIFICATION_TYPE":"U","MEAN_MOTION":14.3421765,"ECCENTRICITY":0.00021174,"INCLINATION":86.3971,"RA_OF_ASC_NODE":11.8535,"ARG_OF_PERICENTER":91.8386,"MEAN_ANOMALY":268.3052,"EPHEMERIS_TYPE":0,"NORAD_CAT_ID":42959,"ELEMENT_SET_NO":999,"REV_AT_EPOCH":45940,"BSTAR":0.000029510254,"MEAN_MOTION_DOT":0.00000102,"MEAN_MOTION_DDOT":0},{"OBJECT_NAME":"IRIDIUM 107","OBJECT_ID":"2017-061F","EPOCH":"2026-07-19T05:44:30.745536","CLASSIFICATION_TYPE":"U","MEAN_MOTION":14.34217411,"ECCENTRICITY":0.00021635,"INCLINATION":86.3973,"RA_OF_ASC_NODE":11.8672,"ARG_OF_PERICENTER":97.0624,"MEAN_ANOMALY":263.0818,"EPHEMERIS_TYPE":0,"NORAD_CAT_ID":42960,"ELEMENT_SET_NO":999,"REV_AT_EPOCH":45941,"BSTAR":0.000005991689,"MEAN_MOTION_DOT":3.7e-7,"MEAN_MOTION_DDOT":0},{"OBJECT_NAME":"IRIDIUM 132","OBJECT_ID":"2017-061G","EPOCH":"2026-07-19T04:13:10.892928","CLASSIFICATION_TYPE":"U","MEAN_MOTION":14.34217615,"ECCENTRICITY":0.00021882,"INCLINATION":86.3971,"RA_OF_ASC_NODE":11.8729,"ARG_OF_PERICENTER":91.3743,"MEAN_ANOMALY":268.7703,"EPHEMERIS_TYPE":0,"NORAD_CAT_ID":42961,"ELEMENT_SET_NO":999,"REV_AT_EPOCH":45940,"BSTAR":0.000031694162,"MEAN_MOTION_DOT":0.00000109,"MEAN_MOTION_DDOT":0},{"OBJECT_NAME":"IRIDIUM 136","OBJECT_ID":"2017-061H","EPOCH":"2026-07-19T04:58:50.848608","CLASSIFICATION_TYPE":"U","MEAN_MOTION":14.34218142,"ECCENTRICITY":0.00022577,"INCLINATION":86.3971,"RA_OF_ASC_NODE":11.8665,"ARG_OF_PERICENTER":90.7167,"MEAN_ANOMALY":269.4287,"EPHEMERIS_TYPE":0,"NORAD_CAT_ID":42962,"ELEMENT_SET_NO":999,"REV_AT_EPOCH":45942,"BSTAR":0.000030278609,"MEAN_MOTION_DOT":0.00000105,"MEAN_MOTION_DDOT":0},{"OBJECT_NAME":"IRIDIUM 139","OBJECT_ID":"2017-061J","EPOCH":"2026-07-19T00:06:34.939584","CLASSIFICATION_TYPE":"U","MEAN_MOTION":14.34218066,"ECCENTRICITY":0.00022639,"INCLINATION":86.3973,"RA_OF_ASC_NODE":12.0137,"ARG_OF_PERICENTER":92.4202,"MEAN_ANOMALY":267.7253,"EPHEMERIS_TYPE":0,"NORAD_CAT_ID":42963,"ELEMENT_SET_NO":999,"REV_AT_EPOCH":45940,"BSTAR":0.000030731929,"MEAN_MOTION_DOT":0.00000106,"MEAN_MOTION_DDOT":0},{"OBJECT_NAME":"IRIDIUM 125","OBJECT_ID":"2017-061K","EPOCH":"2026-07-18T23:48:18.820800","CLASSIFICATION_TYPE":"U","MEAN_MOTION":14.34218374,"ECCENTRICITY":0.00017093,"INCLINATION":86.3974,"RA_OF_ASC_NODE":12.0808,"ARG_OF_PERICENTER":97.398,"MEAN_ANOMALY":262.741,"EPHEMERIS_TYPE":0,"NORAD_CAT_ID":42964,"ELEMENT_SET_NO":999,"REV_AT_EPOCH":45941,"BSTAR":0.000031411725,"MEAN_MOTION_DOT":0.00000108,"MEAN_MOTION_DDOT":0},{"OBJECT_NAME":"IRIDIUM 135","OBJECT_ID":"2017-083A","EPOCH":"2026-07-19T07:33:23.166144","CLASSIFICATION_TYPE":"U","MEAN_MOTION":14.34217643,"ECCENTRICITY":0.00021101,"INCLINATION":86.3984,"RA_OF_ASC_NODE":308.5864,"ARG_OF_PERICENTER":94.8546,"MEAN_ANOMALY":265.2891,"EPHEMERIS_TYPE":0,"NORAD_CAT_ID":43070,"ELEMENT_SET_NO":999,"REV_AT_EPOCH":44875,"BSTAR":-0.000009609863,"MEAN_MOTION_DOT":-7e-8,"MEAN_MOTION_DDOT":0},{"OBJECT_NAME":"IRIDIUM 138","OBJECT_ID":"2017-083B","EPOCH":"2026-07-19T06:29:27.060576","CLASSIFICATION_TYPE":"U","MEAN_MOTION":14.34217248,"ECCENTRICITY":0.00020331,"INCLINATION":86.4001,"RA_OF_ASC_NODE":308.3048,"ARG_OF_PERICENTER":94.1505,"MEAN_ANOMALY":265.9923,"EPHEMERIS_TYPE":0,"NORAD_CAT_ID":43071,"ELEMENT_SET_NO":999,"REV_AT_EPOCH":44873,"BSTAR":0.000064172783,"MEAN_MOTION_DOT":0.00000199,"MEAN_MOTION_DDOT":0}]}
